[{"OBJECT_NAME":"STARLINK-5527","OBJECT_ID":"2023-064BB","EPOCH":"2026-03-09T11:25:41.329920","MEAN_MOTION":14.98325687,"ECCENTRICITY":0.00031283,"INCLINATION":69.9995,"RA_OF_ASC_NODE":104.8725,"ARG_OF_PERICENTER":269.9984,"MEAN_ANOMALY":90.0817,"EPHEMERIS_TYPE":0,"CLASSIFICATION_TYPE":"U","NORAD_CAT_ID":56497,"ELEMENT_SET_NO":999,"REV_AT_EPOCH":15620,"BSTAR":9.8055974e-5,"MEAN_MOTION_DOT":1.077e-5,"MEAN_MOTION_DDOT":0},{"OBJECT_NAME":"CZ-4C DEB","OBJECT_ID":"2015-069D","EPOCH":"2026-03-09T14:03:55.988352","MEAN_MOTION":14.76537169,"ECCENTRICITY":0.0113533,"INCLINATION":97.7994,"RA_OF_ASC_NODE":293.1388,"ARG_OF_PERICENTER":335.1928,"MEAN_ANOMALY":24.3848,"EPHEMERIS_TYPE":0,"CLASSIFICATION_TYPE":"U","NORAD_CAT_ID":42671,"ELEMENT_SET_NO":999,"REV_AT_EPOCH":54179,"BSTAR":0.00082265,"MEAN_MOTION_DOT":6.325e-5,"MEAN_MOTION_DDOT":0}]
